CCSDS_OMM_VERS = 2.0
CREATION_DATE  = 
ORIGINATOR     = 

OBJECT_NAME    = KUIPER-00160
OBJECT_ID      = 2026-030B
CENTER_NAME    = EARTH
REF_FRAME      = TEME
TIME_SYSTEM    = UTC
MEAN_ELEMENT_THEORY = SGP/SGP4

EPOCH          = 2026-03-13T16:02:43.294560
MEAN_MOTION    = 15.35816753
ECCENTRICITY   = .00055625
INCLINATION    = 51.8807
RA_OF_ASC_NODE = 199.9874
ARG_OF_PERICENTER = 64.5315
MEAN_ANOMALY   = 295.6246

EPHEMERIS_TYPE = 0
CLASSIFICATION_TYPE = U
NORAD_CAT_ID   = 67765
ELEMENT_SET_NO = 999
REV_AT_EPOCH   = 570
BSTAR          = .1113782E-2
MEAN_MOTION_DOT = .39246E-3
MEAN_MOTION_DDOT = 0

CCSDS_OMM_VERS = 2.0
CREATION_DATE  = 
ORIGINATOR     = 

OBJECT_NAME    = KUIPER-00177
OBJECT_ID      = 2026-030C
CENTER_NAME    = EARTH
REF_FRAME      = TEME
TIME_SYSTEM    = UTC
MEAN_ELEMENT_THEORY = SGP/SGP4

EPOCH          = 2026-03-13T22:00:01.999584
MEAN_MOTION    = 15.27692706
ECCENTRICITY   = .00027944
INCLINATION    = 51.8843
RA_OF_ASC_NODE = 198.7289
ARG_OF_PERICENTER = 15.1568
MEAN_ANOMALY   = 295.1771

EPHEMERIS_TYPE = 0
CLASSIFICATION_TYPE = U
NORAD_CAT_ID   = 67766
ELEMENT_SET_NO = 999
REV_AT_EPOCH   = 563
BSTAR          = .79364385E-3
MEAN_MOTION_DOT = .21496E-3
MEAN_MOTION_DDOT = 0

CCSDS_OMM_VERS = 2.0
CREATION_DATE  = 
ORIGINATOR     = 

OBJECT_NAME    = KUIPER-00178
OBJECT_ID      = 2026-030D
CENTER_NAME    = EARTH
REF_FRAME      = TEME
TIME_SYSTEM    = UTC
MEAN_ELEMENT_THEORY = SGP/SGP4

EPOCH          = 2026-03-13T22:00:01.999584
MEAN_MOTION    = 15.31721499
ECCENTRICITY   = .00075048
INCLINATION    = 51.8842
RA_OF_ASC_NODE = 198.8767
ARG_OF_PERICENTER = 56.1319
MEAN_ANOMALY   = 204.1447

EPHEMERIS_TYPE = 0
CLASSIFICATION_TYPE = U
NORAD_CAT_ID   = 67767
ELEMENT_SET_NO = 999
REV_AT_EPOCH   = 501
BSTAR          = -.37818484E-3
MEAN_MOTION_DOT = -.12117E-3
MEAN_MOTION_DDOT = 0

CCSDS_OMM_VERS = 2.0
CREATION_DATE  = 
ORIGINATOR     = 

OBJECT_NAME    = KUIPER-00180
OBJECT_ID      = 2026-030E
CENTER_NAME    = EARTH
REF_FRAME      = TEME
TIME_SYSTEM    = UTC
MEAN_ELEMENT_THEORY = SGP/SGP4

EPOCH          = 2026-03-13T22:00:01.999584
MEAN_MOTION    = 15.30114426
ECCENTRICITY   = .00151708
INCLINATION    = 51.8800
RA_OF_ASC_NODE = 199.4307
ARG_OF_PERICENTER = 80.7688
MEAN_ANOMALY   = 257.1687

EPHEMERIS_TYPE = 0
CLASSIFICATION_TYPE = U
NORAD_CAT_ID   = 67768
ELEMENT_SET_NO = 999
REV_AT_EPOCH   = 246
BSTAR          = .38187065E-3
MEAN_MOTION_DOT = .10977E-3
MEAN_MOTION_DDOT = 0

CCSDS_OMM_VERS = 2.0
CREATION_DATE  = 
ORIGINATOR     = 

OBJECT_NAME    = KUIPER-00197
OBJECT_ID      = 2026-030F
CENTER_NAME    = EARTH
REF_FRAME      = TEME
TIME_SYSTEM    = UTC
MEAN_ELEMENT_THEORY = SGP/SGP4

EPOCH          = 2026-03-12T14:43:39.233856
MEAN_MOTION    = 15.36533933
ECCENTRICITY   = .00017784
INCLINATION    = 51.8826
RA_OF_ASC_NODE = 204.9278
ARG_OF_PERICENTER = 60.0576
MEAN_ANOMALY   = 300.0587

EPHEMERIS_TYPE = 0
CLASSIFICATION_TYPE = U
NORAD_CAT_ID   = 67769
ELEMENT_SET_NO = 999
REV_AT_EPOCH   = 554
BSTAR          = .62765359E-3
MEAN_MOTION_DOT = .22408E-3
MEAN_MOTION_DDOT = 0

CCSDS_OMM_VERS = 2.0
CREATION_DATE  = 
ORIGINATOR     = 

OBJECT_NAME    = KUIPER-00198
OBJECT_ID      = 2026-030G
CENTER_NAME    = EARTH
REF_FRAME      = TEME
TIME_SYSTEM    = UTC
MEAN_ELEMENT_THEORY = SGP/SGP4

EPOCH          = 2026-03-13T20:32:37.046112
MEAN_MOTION    = 15.36298436
ECCENTRICITY   = .00036883
INCLINATION    = 51.8801
RA_OF_ASC_NODE = 198.9976
ARG_OF_PERICENTER = 54.2834
MEAN_ANOMALY   = 305.8495

EPHEMERIS_TYPE = 0
CLASSIFICATION_TYPE = U
NORAD_CAT_ID   = 67770
ELEMENT_SET_NO = 999
REV_AT_EPOCH   = 573
BSTAR          = .99698027E-3
MEAN_MOTION_DOT = .35616E-3
MEAN_MOTION_DDOT = 0

CCSDS_OMM_VERS = 2.0
CREATION_DATE  = 
ORIGINATOR     = 

OBJECT_NAME    = KUIPER-00199
OBJECT_ID      = 2026-030H
CENTER_NAME    = EARTH
REF_FRAME      = TEME
TIME_SYSTEM    = UTC
MEAN_ELEMENT_THEORY = SGP/SGP4

EPOCH          = 2026-03-13T18:09:52.375680
MEAN_MOTION    = 15.34580311
ECCENTRICITY   = .00098451
INCLINATION    = 51.8817
RA_OF_ASC_NODE = 199.8216
ARG_OF_PERICENTER = 75.7630
MEAN_ANOMALY   = 284.4448

EPHEMERIS_TYPE = 0
CLASSIFICATION_TYPE = U
NORAD_CAT_ID   = 67771
ELEMENT_SET_NO = 999
REV_AT_EPOCH   = 571
BSTAR          = .11926471E-2
MEAN_MOTION_DOT = .4046E-3
MEAN_MOTION_DDOT = 0

CCSDS_OMM_VERS = 2.0
CREATION_DATE  = 
ORIGINATOR     = 

OBJECT_NAME    = KUIPER-00200
OBJECT_ID      = 2026-030J
CENTER_NAME    = EARTH
REF_FRAME      = TEME
TIME_SYSTEM    = UTC
MEAN_ELEMENT_THEORY = SGP/SGP4

EPOCH          = 2026-03-13T20:05:33.914112
MEAN_MOTION    = 15.37312157
ECCENTRICITY   = .00019129
INCLINATION    = 51.8809
RA_OF_ASC_NODE = 198.8781
ARG_OF_PERICENTER = 295.5449
MEAN_ANOMALY   = 64.5340

EPHEMERIS_TYPE = 0
CLASSIFICATION_TYPE = U
NORAD_CAT_ID   = 67772
ELEMENT_SET_NO = 999
REV_AT_EPOCH   = 573
BSTAR          = .10504375E-2
MEAN_MOTION_DOT = .38815E-3
MEAN_MOTION_DDOT = 0

CCSDS_OMM_VERS = 2.0
CREATION_DATE  = 
ORIGINATOR     = 

OBJECT_NAME    = KUIPER-00203
OBJECT_ID      = 2026-030K
CENTER_NAME    = EARTH
REF_FRAME      = TEME
TIME_SYSTEM    = UTC
MEAN_ELEMENT_THEORY = SGP/SGP4

EPOCH          = 2026-03-13T22:00:01.999584
MEAN_MOTION    = 15.06667669
ECCENTRICITY   = .00118594
INCLINATION    = 51.8939
RA_OF_ASC_NODE = 200.5223
ARG_OF_PERICENTER = 75.6000
MEAN_ANOMALY   = 29.2517

EPHEMERIS_TYPE = 0
CLASSIFICATION_TYPE = U
NORAD_CAT_ID   = 67773
ELEMENT_SET_NO = 999
REV_AT_EPOCH   = 430
BSTAR          = -.85251798E-1
MEAN_MOTION_DOT = -.117839E-1
MEAN_MOTION_DDOT = 0

CCSDS_OMM_VERS = 2.0
CREATION_DATE  = 
ORIGINATOR     = 

OBJECT_NAME    = KUIPER-00205
OBJECT_ID      = 2026-030L
CENTER_NAME    = EARTH
REF_FRAME      = TEME
TIME_SYSTEM    = UTC
MEAN_ELEMENT_THEORY = SGP/SGP4

EPOCH          = 2026-03-13T07:54:43.549344
MEAN_MOTION    = 15.36606584
ECCENTRICITY   = .0003811
INCLINATION    = 51.8812
RA_OF_ASC_NODE = 201.4717
ARG_OF_PERICENTER = 32.3796
MEAN_ANOMALY   = 327.7424

EPHEMERIS_TYPE = 0
CLASSIFICATION_TYPE = U
NORAD_CAT_ID   = 67774
ELEMENT_SET_NO = 999
REV_AT_EPOCH   = 565
BSTAR          = .89022205E-3
MEAN_MOTION_DOT = .32065E-3
MEAN_MOTION_DDOT = 0

CCSDS_OMM_VERS = 2.0
CREATION_DATE  = 
ORIGINATOR     = 

OBJECT_NAME    = KUIPER-00208
OBJECT_ID      = 2026-030M
CENTER_NAME    = EARTH
REF_FRAME      = TEME
TIME_SYSTEM    = UTC
MEAN_ELEMENT_THEORY = SGP/SGP4

EPOCH          = 2026-03-13T17:11:24.971136
MEAN_MOTION    = 15.32146896
ECCENTRICITY   = .00147885
INCLINATION    = 51.8827
RA_OF_ASC_NODE = 200.3023
ARG_OF_PERICENTER = 63.2058
MEAN_ANOMALY   = 297.0437

EPHEMERIS_TYPE = 0
CLASSIFICATION_TYPE = U
NORAD_CAT_ID   = 67775
ELEMENT_SET_NO = 999
REV_AT_EPOCH   = 570
BSTAR          = .52517739E-3
MEAN_MOTION_DOT = .16256E-3
MEAN_MOTION_DDOT = 0

CCSDS_OMM_VERS = 2.0
CREATION_DATE  = 
ORIGINATOR     = 

OBJECT_NAME    = KUIPER-00209
OBJECT_ID      = 2026-030N
CENTER_NAME    = EARTH
REF_FRAME      = TEME
TIME_SYSTEM    = UTC
MEAN_ELEMENT_THEORY = SGP/SGP4

EPOCH          = 2026-03-13T20:44:00.008736
MEAN_MOTION    = 15.29697626
ECCENTRICITY   = .00141355
INCLINATION    = 51.8838
RA_OF_ASC_NODE = 199.7820
ARG_OF_PERICENTER = 72.5146
MEAN_ANOMALY   = 287.7382

EPHEMERIS_TYPE = 0
CLASSIFICATION_TYPE = U
NORAD_CAT_ID   = 67776
ELEMENT_SET_NO = 999
REV_AT_EPOCH   = 572
BSTAR          = .16268898E-2
MEAN_MOTION_DOT = .47561E-3
MEAN_MOTION_DDOT = 0

