KUIPER-00160            
1 67765U 26030B   26072.66855665  .00039246  00000+0  11138-2 0  9995
2 67765  51.8807 199.9874 0005562  64.5315 295.6246 15.35816753  5701
KUIPER-00177            
1 67766U 26030C   26072.91668981  .00021496  00000+0  79364-3 0  9991
2 67766  51.8843 198.7289 0002794  15.1568 295.1771 15.27692706  5636
KUIPER-00178            
1 67767U 26030D   26072.91668981 -.00012117  00000+0 -37818-3 0  9992
2 67767  51.8842 198.8767 0007504  56.1319 204.1447 15.31721499  5010
KUIPER-00180            
1 67768U 26030E   26072.91668981  .00010977  00000+0  38187-3 0  9993
2 67768  51.8800 199.4307 0015170  80.7688 257.1687 15.30114426  2467
KUIPER-00197            
1 67769U 26030F   26071.61364854  .00022408  00000+0  62765-3 0  9993
2 67769  51.8826 204.9278 0001778  60.0576 300.0587 15.36533933  5544
KUIPER-00198            
1 67770U 26030G   26072.85598433  .00035616  00000+0  99698-3 0  9994
2 67770  51.8801 198.9976 0003688  54.2834 305.8495 15.36298436  5738
KUIPER-00199            
1 67771U 26030H   26072.75685620  .00040460  00000+0  11926-2 0  9999
2 67771  51.8817 199.8216 0009845  75.7630 284.4448 15.34580311  5718
KUIPER-00200            
1 67772U 26030J   26072.83719808  .00038815  00000+0  10504-2 0  9997
2 67772  51.8809 198.8781 0001912 295.5449  64.5340 15.37312157  5737
KUIPER-00203            
1 67773U 26030K   26072.91668981 -.01178390  00000+0 -85252-1 0  9999
2 67773  51.8939 200.5223 0011859  75.6000  29.2517 15.06667669  4308
KUIPER-00205            
1 67774U 26030L   26072.32967071  .00032065  00000+0  89022-3 0  9993
2 67774  51.8812 201.4717 0003811  32.3796 327.7424 15.36606584  5652
KUIPER-00208            
1 67775U 26030M   26072.71626124  .00016256  00000+0  52518-3 0  9992
2 67775  51.8827 200.3023 0014788  63.2058 297.0437 15.32146896  5706
KUIPER-00209            
1 67776U 26030N   26072.86388899  .00047561  00000+0  16269-2 0  9998
2 67776  51.8838 199.7820 0014135  72.5146 287.7382 15.29697626  5727
